QIANFAN-41              
1 62242U 24232F   26004.79612178  .00000080  00000+0  10440-3 0  9991
2 62242  89.0004  38.8693 0015742 121.3566 238.9128 13.50982085102365
QIANFAN-42              
1 62243U 24232G   26004.81313456  .00000383  00000+0  15894-3 0  9996
2 62243  88.9996  34.7195 0015425  17.8867 342.2865 14.24503913104659
QIANFAN-43              
1 62244U 24232H   26004.79198107  .00000090  00000+0  12069-3 0  9994
2 62244  89.0008  38.9361 0017180 126.3971 233.8768 13.50981031 70972
QIANFAN-44              
1 62245U 24232J   26004.85371490  .00000092  00000+0  12305-3 0  9995
2 62245  89.0006  38.7402 0015450 123.2035 237.0600 13.50983261102457
QIANFAN-45              
1 62246U 24232K   26004.82083272  .00000093  00000+0  12502-3 0  9991
2 62246  89.0010  38.8909 0016119 123.0963 237.1738 13.50979233102375
QIANFAN-46              
1 62247U 24232L   26004.77141745  .00000092  00000+0  12399-3 0  9999
2 62247  89.0006  38.9639 0016071 128.1864 232.0737 13.50981164102329
QIANFAN-47              
1 62248U 24232M   26004.84963556  .00000088  00000+0  11774-3 0  9991
2 62248  89.0002  38.8881 0016521 127.3370 232.9290 13.50981345102365
QIANFAN-48              
1 62249U 24232N   26004.81256178  .00000076  00000+0  99142-4 0  9997
2 62249  89.0006  38.8945 0018721 130.2949 229.9842 13.50982936102366
